SL-16 R/B               
1 22566U 93016B   25361.12347244  .00000221  00000+0  13817-3 0  9991
2 22566  71.0085   7.5929 0008044  68.8967 291.3015 14.15293913691900
COSMOS 2242             
1 22626U 93024A   25360.94824181  .00002967  00000+0  26060-3 0  9999
2 22626  82.5196 336.2631 0016082 183.7087 176.4019 14.96166233769513
SL-16 R/B               
1 22803U 93059B   25360.91910494  .00000300  00000+0  17230-3 0  9992
2 22803  70.9887 164.5852 0018665 315.6592  44.3036 14.17217124669229
ARIANE 40 R/B           
1 22830U 93061H   25361.14358078  .00000307  00000+0  12844-3 0  9998
2 22830  98.5057  66.4103 0011589 135.4888 224.7229 14.32811100683716
COSMOS 2278             
1 23087U 94023A   25361.17600968  .00000156  00000+0  10622-3 0  9997
2 23087  71.0535 326.8067 0007737 153.5254 206.6265 14.14349133634557
SL-16 R/B               
1 23088U 94023B   25361.04337163 -.00000190  00000+0 -73683-4 0  9995
2 23088  70.9974 223.4485 0002176   2.2377 357.8754 14.14999010635814
SL-16 R/B               
1 23343U 94074B   25361.07464176  .00000574  00000+0  83784-4 0  9990
2 23343  97.7189  29.8085 0008029  96.5914 283.3316 14.79305943676519
SL-16 R/B               
1 23405U 94077B   25360.69999859 -.00000217  00000+0 -86235-4 0  9990
2 23405  70.9822 146.0450 0005048 273.7923  86.2623 14.15551765605901
ARIANE 40+ R/B          
1 23561U 95021B   25361.19191877  .00000371  00000+0  13244-3 0  9991
2 23561  98.4633  68.6054 0006700   9.3366  49.3975 14.39706589608813
SL-16 R/B               
1 23705U 95058B   25361.19807032 -.00000065  00000+0 -88611-5 0  9992
2 23705  71.0217 332.4485 0014554 236.0432 123.9308 14.15481273557598
SL-16 R/B               
1 24298U 96051B   25361.14879895  .00000005  00000+0  29264-4 0  9995
2 24298  70.7596 328.7835 0019460 243.6993 116.2127 14.12397805511404
ORBVIEW 2 (SEASTAR)     
1 24883U 97037A   25360.99583306  .00000367  00000+0  14401-3 0  9998
2 24883  98.8463 158.4297 0001201 276.7200  83.3848 14.35427325498044
